{"type": "FeatureCollection", "features": [ {"type": "Feature", "properties": {"norad_id": 58662, "name": "TIANMU-1 21", "group": "weather", "lat": -81.77388029865416, "lon": 168.28144442377106, "alt_km": 474.71789313060435, "timestamp": "2025-12-16T05:49:08.866691+00:00", "meta": {"OBJECT_NAME": "TIANMU-1 21", "OBJECT_ID": "2023-208C", "EPOCH": "2025-12-15T22:21:22.754304", "MEAN_MOTION": 15.31623182, "ECCENTRICITY": 0.00059596, "INCLINATION": 97.4372, "RA_OF_ASC_NODE": 103.3356, "ARG_OF_PERICENTER": 246.5601, "MEAN_ANOMALY": 113.5014, "EPHEMERIS_TYPE": 0, "CLASSIFICATION_TYPE": "U", "NORAD_CAT_ID": 58662, "ELEMENT_SET_NO": 999, "REV_AT_EPOCH": 10948, "BSTAR": 0.00029041871, "MEAN_MOTION_DOT": 8.795e-05, "MEAN_MOTION_DDOT": 0}, "tle": {"line1": "1 58662U 23208C   25349.93151336  .00008795  00000+0  29042-3 0  9994", "line2": "2 58662  97.4372 103.3356 0005959 246.5601 113.5014 15.31623182109483"}}, "geometry": {"type": "Point", "coordinates": [168.28144442377106, -81.77388029865416]}}, {"type": "Feature", "properties": {"norad_id": 58663, "name": "TIANMU-1 22", "group": "weather", "lat": 33.654182404242285, "lon": -73.6801979833802, "alt_km": 481.7715583774552, "timestamp": "2025-12-16T05:49:08.866713+00:00", "meta": {"OBJECT_NAME": "TIANMU-1 22", "OBJECT_ID": "2023-208D", "EPOCH": "2025-12-15T22:53:38.611104", "MEAN_MOTION": 15.27661517, "ECCENTRICITY": 0.00026699, "INCLINATION": 97.4382, "RA_OF_ASC_NODE": 101.0421, "ARG_OF_PERICENTER": 270.32, "MEAN_ANOMALY": 89.7733, "EPHEMERIS_TYPE": 0, "CLASSIFICATION_TYPE": "U", "NORAD_CAT_ID": 58663, "ELEMENT_SET_NO": 999, "REV_AT_EPOCH": 10932, "BSTAR": 0.00023648262, "MEAN_MOTION_DOT": 6.319e-05, "MEAN_MOTION_DDOT": 0}, "tle": {"line1": "1 58663U 23208D   25349.95391911  .00006319  00000+0  23648-3 0  9998", "line2": "2 58663  97.4382 101.0421 0002669 270.3200  89.7733 15.27661517109322"}}, "geometry": {"type": "Point", "coordinates": [-73.6801979833802, 33.654182404242285]}}, {"type": "Feature", "properties": {"norad_id": 58700, "name": "TIANMU-1 15", "group": "weather", "lat": -54.846602506856996, "lon": -19.028903030069234, "alt_km": 496.382810504032, "timestamp": "2025-12-16T05:49:08.866731+00:00", "meta": {"OBJECT_NAME": "TIANMU-1 15", "OBJECT_ID": "2024-004A", "EPOCH": "2025-12-15T13:02:10.173984", "MEAN_MOTION": 15.24523626, "ECCENTRICITY": 0.00056536, "INCLINATION": 97.4626, "RA_OF_ASC_NODE": 171.0022, "ARG_OF_PERICENTER": 279.9728, "MEAN_ANOMALY": 80.0871, "EPHEMERIS_TYPE": 0, "CLASSIFICATION_TYPE": "U", "NORAD_CAT_ID": 58700, "ELEMENT_SET_NO": 999, "REV_AT_EPOCH": 10777, "BSTAR": 0.00021318175, "MEAN_MOTION_DOT": 5.174e-05, "MEAN_MOTION_DDOT": 0}, "tle": {"line1": "1 58700U 24004A   25349.54317331  .00005174  00000+0  21318-3 0  9994", "line2": "2 58700  97.4626 171.0022 0005653 279.9728  80.0871 15.24523626107774"}}, "geometry": {"type": "Point", "coordinates": [-19.028903030069234, -54.846602506856996]}}, {"type": "Feature", "properties": {"norad_id": 58701, "name": "TIANMU-1 16", "group": "weather", "lat": -42.44988852755589, "lon": 177.96510856102873, "alt_km": 496.61670143225547, "timestamp": "2025-12-16T05:49:08.866751+00:00", "meta": {"OBJECT_NAME": "TIANMU-1 16", "OBJECT_ID": "2024-004B", "EPOCH": "2025-12-15T23:42:20.225376", "MEAN_MOTION": 15.24479, "ECCENTRICITY": 0.0004358, "INCLINATION": 97.4565, "RA_OF_ASC_NODE": 170.8309, "ARG_OF_PERICENTER": 281.7697, "MEAN_ANOMALY": 78.3052, "EPHEMERIS_TYPE": 0, "CLASSIFICATION_TYPE": "U", "NORAD_CAT_ID": 58701, "ELEMENT_SET_NO": 999, "REV_AT_EPOCH": 10784, "BSTAR": 0.00022790036, "MEAN_MOTION_DOT": 5.528e-05, "MEAN_MOTION_DDOT": 0}, "tle": {"line1": "1 58701U 24004B   25349.98773409  .00005528  00000+0  22790-3 0  9993", "line2": "2 58701  97.4565 170.8309 0004358 281.7697  78.3052 15.24479000107844"}}, "geometry": {"type": "Point", "coordinates": [177.96510856102873, -42.44988852755589]}}, {"type": "Feature", "properties": {"norad_id": 58702, "name": "TIANMU-1 17", "group": "weather", "lat": 41.73237236030825, "lon": 164.7843464816353, "alt_km": 490.06512617695716, "timestamp": "2025-12-16T05:49:08.866768+00:00", "meta": {"OBJECT_NAME": "TIANMU-1 17", "OBJECT_ID": "2024-004C", "EPOCH": "2025-12-15T23:20:01.220640", "MEAN_MOTION": 15.24522912, "ECCENTRICITY": 0.00035714, "INCLINATION": 97.4598, "RA_OF_ASC_NODE": 171.2272, "ARG_OF_PERICENTER": 285.0355, "MEAN_ANOMALY": 75.0487, "EPHEMERIS_TYPE": 0, "CLASSIFICATION_TYPE": "U", "NORAD_CAT_ID": 58702, "ELEMENT_SET_NO": 999, "REV_AT_EPOCH": 10783, "BSTAR": 0.00021725423, "MEAN_MOTION_DOT": 5.273e-05, "MEAN_MOTION_DDOT": 0}, "tle": {"line1": "1 58702U 24004C   25349.97223635  .00005273  00000+0  21725-3 0  9998", "line2": "2 58702  97.4598 171.2272 0003571 285.0355  75.0487 15.24522912107835"}}, "geometry": {"type": "Point", "coordinates": [164.7843464816353, 41.73237236030825]}}, {"type": "Feature", "properties": {"norad_id": 58703, "name": "TIANMU-1 18", "group": "weather", "lat": 45.86087046171442, "lon": -0.545560381014518, "alt_km": 490.0706741320182, "timestamp": "2025-12-16T05:49:08.866788+00:00", "meta": {"OBJECT_NAME": "TIANMU-1 18", "OBJECT_ID": "2024-004D", "EPOCH": "2025-12-15T22:56:02.093856", "MEAN_MOTION": 15.2450866, "ECCENTRICITY": 0.00029185, "INCLINATION": 97.4616, "RA_OF_ASC_NODE": 171.4066, "ARG_OF_PERICENTER": 284.7503, "MEAN_ANOMALY": 75.3411, "EPHEMERIS_TYPE": 0, "CLASSIFICATION_TYPE": "U", "NORAD_CAT_ID": 58703, "ELEMENT_SET_NO": 999, "REV_AT_EPOCH": 10783, "BSTAR": 0.00020357112, "MEAN_MOTION_DOT": 4.934e-05, "MEAN_MOTION_DDOT": 0}, "tle": {"line1": "1 58703U 24004D   25349.95557979  .00004934  00000+0  20357-3 0  9991", "line2": "2 58703  97.4616 171.4066 0002918 284.7503  75.3411 15.24508660107839"}}, "geometry": {"type": "Point", "coordinates": [-0.545560381014518, 45.86087046171442]}}, {"type": "Feature", "properties": {"norad_id": 58990, "name": "INSAT-3DS", "group": "weather", "lat": -0.007550915988916023, "lon": -105.49930461384317, "alt_km": 35781.094486048525, "timestamp": "2025-12-16T05:49:08.866809+00:00", "meta": {"OBJECT_NAME": "INSAT-3DS", "OBJECT_ID": "2024-033A", "EPOCH": "2025-12-15T20:37:32.134080", "MEAN_MOTION": 1.00272695, "ECCENTRICITY": 0.00011551, "INCLINATION": 0.0459, "RA_OF_ASC_NODE": 122.5405, "ARG_OF_PERICENTER": 145.8403, "MEAN_ANOMALY": 207.8528, "EPHEMERIS_TYPE": 0, "CLASSIFICATION_TYPE": "U", "NORAD_CAT_ID": 58990, "ELEMENT_SET_NO": 999, "REV_AT_EPOCH": 4523, "BSTAR": 0, "MEAN_MOTION_DOT": -1.34e-06, "MEAN_MOTION_DDOT": 0}, "tle": {"line1": "1 58990U 24033A   25349.85939970 -.00000134  00000+0  00000+0 0  9993", "line2": "2 58990   0.0459 122.5405 0001155 145.8403 207.8528  1.00272695 45235"}}, "geometry": {"type": "Point", "coordinates": [-105.49930461384317, -0.007550915988916023]}}, {"type": "Feature", "properties": {"norad_id": 59051, "name": "METEOR-M2 4", "group": "weather", "lat": 74.20471211126642, "lon": 159.76796018313806, "alt_km": 812.193479313135, "timestamp": "2025-12-16T05:49:08.866828+00:00", "meta": {"OBJECT_NAME": "METEOR-M2 4", "OBJECT_ID": "2024-039A", "EPOCH": "2025-12-16T00:16:16.172256", "MEAN_MOTION": 14.2240184, "ECCENTRICITY": 0.00068586, "INCLINATION": 98.6769, "RA_OF_ASC_NODE": 306.8689, "ARG_OF_PERICENTER": 349.1666, "MEAN_ANOMALY": 10.9363, "EPHEMERIS_TYPE": 0, "CLASSIFICATION_TYPE": "U", "NORAD_CAT_ID": 59051, "ELEMENT_SET_NO": 999, "REV_AT_EPOCH": 9322, "BSTAR": 3.0237002e-05, "MEAN_MOTION_DOT": 2.4e-07, "MEAN_MOTION_DDOT": 0}, "tle": {"line1": "1 59051U 24039A   25350.01129829  .00000024  00000+0  30237-4 0  9999", "line2": "2 59051  98.6769 306.8689 0006858 349.1666  10.9363 14.22401840 93223"}}, "geometry": {"type": "Point", "coordinates": [159.76796018313806, 74.20471211126642]}}, {"type": "Feature", "properties": {"norad_id": 60133, "name": "GOES 19", "group": "weather", "lat": -0.007223213672162727, "lon": 97.23170178324698, "alt_km": 35789.24210110279, "timestamp": "2025-12-16T05:49:08.866848+00:00", "meta": {"OBJECT_NAME": "GOES 19", "OBJECT_ID": "2024-119A", "EPOCH": "2025-12-15T21:35:26.589984", "MEAN_MOTION": 1.00272551, "ECCENTRICITY": 0.00010777, "INCLINATION": 0.0089, "RA_OF_ASC_NODE": 205.1465, "ARG_OF_PERICENTER": 114.7779, "MEAN_ANOMALY": 13.5457, "EPHEMERIS_TYPE": 0, "CLASSIFICATION_TYPE": "U", "NORAD_CAT_ID": 60133, "ELEMENT_SET_NO": 999, "REV_AT_EPOCH": 512, "BSTAR": 0, "MEAN_MOTION_DOT": -2.26e-06, "MEAN_MOTION_DDOT": 0}, "tle": {"line1": "1 60133U 24119A   25349.89961331 -.00000226  00000+0  00000+0 0  9992", "line2": "2 60133   0.0089 205.1465 0001077 114.7779  13.5457  1.00272551  5122"}}, "geometry": {"type": "Point", "coordinates": [97.23170178324698, -0.007223213672162727]}}, {"type": "Feature", "properties": {"norad_id": 65815, "name": "FENGYUN 3H", "group": "weather", "lat": -48.71452868380006, "lon": -60.24941902093049, "alt_km": 832.886137321977, "timestamp": "2025-12-16T05:49:08.866866+00:00", "meta": {"OBJECT_NAME": "FENGYUN 3H", "OBJECT_ID": "2025-219A", "EPOCH": "2025-12-15T21:35:44.487744", "MEAN_MOTION": 14.19905636, "ECCENTRICITY": 6.54e-05, "INCLINATION": 98.6587, "RA_OF_ASC_NODE": 289.4217, "ARG_OF_PERICENTER": 99.229, "MEAN_ANOMALY": 260.8961, "EPHEMERIS_TYPE": 0, "CLASSIFICATION_TYPE": "U", "NORAD_CAT_ID": 65815, "ELEMENT_SET_NO": 999, "REV_AT_EPOCH": 1137, "BSTAR": 5.040957e-05, "MEAN_MOTION_DOT": 6.4e-07, "MEAN_MOTION_DDOT": 0}, "tle": {"line1": "1 65815U 25219A   25349.89982046  .00000064  00000+0  50410-4 0  9996", "line2": "2 65815  98.6587 289.4217 0000654  99.2290 260.8961 14.19905636 11377"}}, "geometry": {"type": "Point", "coordinates": [-60.24941902093049, -48.71452868380006]}}]}